[{"OBJECT_NAME":"ONEWEB-0362","OBJECT_ID":"2021-090K","EPOCH":"2025-09-19T23:11:18.537792","MEAN_MOTION":13.19725712,"ECCENTRICITY":0.0001734,"INCLINATION":87.9284,"RA_OF_ASC_NODE":358.7279,"ARG_OF_PERICENTER":108.5083,"MEAN_ANOMALY":251.6238,"EPHEMERIS_TYPE":0,"CLASSIFICATION_TYPE":"U","NORAD_CAT_ID":49288,"ELEMENT_SET_NO":999,"REV_AT_EPOCH":19127,"BSTAR":0.00020593615,"MEAN_MOTION_DOT":9.5e-7,"MEAN_MOTION_DDOT":0},{"OBJECT_NAME":"ONEWEB-0363","OBJECT_ID":"2021-090L","EPOCH":"2025-09-19T22:33:49.747104","MEAN_MOTION":13.2077024,"ECCENTRICITY":0.00021111,"INCLINATION":87.9265,"RA_OF_ASC_NODE":328.3207,"ARG_OF_PERICENTER":89.6268,"MEAN_ANOMALY":270.5108,"EPHEMERIS_TYPE":0,"CLASSIFICATION_TYPE":"U","NORAD_CAT_ID":49289,"ELEMENT_SET_NO":999,"REV_AT_EPOCH":19463,"BSTAR":0.00016361367,"MEAN_MOTION_DOT":7.9e-7,"MEAN_MOTION_DDOT":0},{"OBJECT_NAME":"ONEWEB-0364","OBJECT_ID":"2021-090M","EPOCH":"2025-09-19T21:39:17.080992","MEAN_MOTION":13.20769863,"ECCENTRICITY":0.00019159,"INCLINATION":87.9258,"RA_OF_ASC_NODE":328.3545,"ARG_OF_PERICENTER":93.5708,"MEAN_ANOMALY":266.5644,"EPHEMERIS_TYPE":0,"CLASSIFICATION_TYPE":"U","NORAD_CAT_ID":49290,"ELEMENT_SET_NO":999,"REV_AT_EPOCH":19576,"BSTAR":0.00023385598,"MEAN_MOTION_DOT":1.08e-6,"MEAN_MOTION_DDOT":0},{"OBJECT_NAME":"ONEWEB-0365","OBJECT_ID":"2021-090N","EPOCH":"2025-09-19T19:46:35.072256","MEAN_MOTION":13.19725702,"ECCENTRICITY":0.00016425,"INCLINATION":87.9283,"RA_OF_ASC_NODE":358.7118,"ARG_OF_PERICENTER":100.1403,"MEAN_ANOMALY":259.9915,"EPHEMERIS_TYPE":0,"CLASSIFICATION_TYPE":"U","NORAD_CAT_ID":49291,"ELEMENT_SET_NO":999,"REV_AT_EPOCH":19076,"BSTAR":5.0906191e-5,"MEAN_MOTION_DOT":3.3e-7,"MEAN_MOTION_DDOT":0},{"OBJECT_NAME":"ONEWEB-0366","OBJECT_ID":"2021-090P","EPOCH":"2025-09-19T18:15:54.478080","MEAN_MOTION":13.14502989,"ECCENTRICITY":0.00018859,"INCLINATION":87.9083,"RA_OF_ASC_NODE":343.5695,"ARG_OF_PERICENTER":100.2434,"MEAN_ANOMALY":259.8908,"EPHEMERIS_TYPE":0,"CLASSIFICATION_TYPE":"U","NORAD_CAT_ID":49292,"ELEMENT_SET_NO":999,"REV_AT_EPOCH":19203,"BSTAR":0.00060987533,"MEAN_MOTION_DOT":2.39e-6,"MEAN_MOTION_DDOT":0},{"OBJECT_NAME":"ONEWEB-0367","OBJECT_ID":"2021-090Q","EPOCH":"2025-09-19T22:31:32.762496","MEAN_MOTION":13.20768464,"ECCENTRICITY":0.00018353,"INCLINATION":87.9268,"RA_OF_ASC_NODE":328.3167,"ARG_OF_PERICENTER":104.1661,"MEAN_ANOMALY":255.9677,"EPHEMERIS_TYPE":0,"CLASSIFICATION_TYPE":"U","NORAD_CAT_ID":49293,"ELEMENT_SET_NO":999,"REV_AT_EPOCH":19415,"BSTAR":-0.00027678293,"MEAN_MOTION_DOT":-1.0e-6,"MEAN_MOTION_DDOT":0},{"OBJECT_NAME":"ONEWEB-0368","OBJECT_ID":"2021-090R","EPOCH":"2025-09-20T03:20:11.370336","MEAN_MOTION":13.20770056,"ECCENTRICITY":0.00015293,"INCLINATION":87.9262,"RA_OF_ASC_NODE":328.3127,"ARG_OF_PERICENTER":74.0122,"MEAN_ANOMALY":286.118,"EPHEMERIS_TYPE":0,"CLASSIFICATION_TYPE":"U","NORAD_CAT_ID":49294,"ELEMENT_SET_NO":999,"REV_AT_EPOCH":19533,"BSTAR":0.000207709,"MEAN_MOTION_DOT":9.7e-7,"MEAN_MOTION_DDOT":0},{"OBJECT_NAME":"ONEWEB-0369","OBJECT_ID":"2021-090S","EPOCH":"2025-09-19T19:39:46.345824","MEAN_MOTION":13.19725355,"ECCENTRICITY":0.00017155,"INCLINATION":87.9293,"RA_OF_ASC_NODE":358.7431,"ARG_OF_PERICENTER":102.5491,"MEAN_ANOMALY":257.5833,"EPHEMERIS_TYPE":0,"CLASSIFICATION_TYPE":"U","NORAD_CAT_ID":49295,"ELEMENT_SET_NO":999,"REV_AT_EPOCH":19075,"BSTAR":-3.9705228e-5,"MEAN_MOTION_DOT":-3.0e-8,"MEAN_MOTION_DDOT":0},{"OBJECT_NAME":"ONEWEB-0370","OBJECT_ID":"2021-090T","EPOCH":"2025-09-19T22:45:11.488896","MEAN_MOTION":13.2077001,"ECCENTRICITY":0.00020545,"INCLINATION":87.9266,"RA_OF_ASC_NODE":328.3233,"ARG_OF_PERICENTER":106.2,"MEAN_ANOMALY":253.9359,"EPHEMERIS_TYPE":0,"CLASSIFICATION_TYPE":"U","NORAD_CAT_ID":49296,"ELEMENT_SET_NO":999,"REV_AT_EPOCH":19419,"BSTAR":-0.00013617179,"MEAN_MOTION_DOT":-4.2e-7,"MEAN_MOTION_DDOT":0},{"OBJECT_NAME":"ONEWEB-0371","OBJECT_ID":"2021-090U","EPOCH":"2025-09-19T19:51:08.110944","MEAN_MOTION":13.1972537,"ECCENTRICITY":0.00017167,"INCLINATION":87.9285,"RA_OF_ASC_NODE":358.7309,"ARG_OF_PERICENTER":103.4636,"MEAN_ANOMALY":256.6688,"EPHEMERIS_TYPE":0,"CLASSIFICATION_TYPE":"U","NORAD_CAT_ID":49297,"ELEMENT_SET_NO":999,"REV_AT_EPOCH":19079,"BSTAR":2.6466139e-5,"MEAN_MOTION_DOT":2.4e-7,"MEAN_MOTION_DDOT":0},{"OBJECT_NAME":"ONEWEB-0372","OBJECT_ID":"2021-090V","EPOCH":"2025-09-19T22:29:05.658720","MEAN_MOTION":13.20771994,"ECCENTRICITY":0.00017555,"INCLINATION":87.9263,"RA_OF_ASC_NODE":328.328,"ARG_OF_PERICENTER":98.1452,"MEAN_ANOMALY":261.9881,"EPHEMERIS_TYPE":0,"CLASSIFICATION_TYPE":"U","NORAD_CAT_ID":49298,"ELEMENT_SET_NO":999,"REV_AT_EPOCH":19416,"BSTAR":0.00010827168,"MEAN_MOTION_DOT":5.7e-7,"MEAN_MOTION_DDOT":0},{"OBJECT_NAME":"ONEWEB-0373","OBJECT_ID":"2021-090W","EPOCH":"2025-09-20T02:46:06.151008","MEAN_MOTION":13.20771669,"ECCENTRICITY":0.00019774,"INCLINATION":87.9257,"RA_OF_ASC_NODE":328.3063,"ARG_OF_PERICENTER":97.4232,"MEAN_ANOMALY":262.7126,"EPHEMERIS_TYPE":0,"CLASSIFICATION_TYPE":"U","NORAD_CAT_ID":49299,"ELEMENT_SET_NO":999,"REV_AT_EPOCH":19537,"BSTAR":0.00020610708,"MEAN_MOTION_DOT":9.7e-7,"MEAN_MOTION_DDOT":0},{"OBJECT_NAME":"ONEWEB-0374","OBJECT_ID":"2021-090X","EPOCH":"2025-09-19T17:57:38.807712","MEAN_MOTION":13.14503273,"ECCENTRICITY":0.00016016,"INCLINATION":87.9085,"RA_OF_ASC_NODE":343.5474,"ARG_OF_PERICENTER":103.7323,"MEAN_ANOMALY":256.3985,"EPHEMERIS_TYPE":0,"CLASSIFICATION_TYPE":"U","NORAD_CAT_ID":49300,"ELEMENT_SET_NO":999,"REV_AT_EPOCH":19203,"BSTAR":-0.00071853251,"MEAN_MOTION_DOT":-2.54e-6,"MEAN_MOTION_DDOT":0},{"OBJECT_NAME":"ONEWEB-0375","OBJECT_ID":"2021-090Y","EPOCH":"2025-09-19T21:00:39.045888","MEAN_MOTION":13.20770548,"ECCENTRICITY":0.00023452,"INCLINATION":87.9263,"RA_OF_ASC_NODE":328.3339,"ARG_OF_PERICENTER":88.9099,"MEAN_ANOMALY":271.2303,"EPHEMERIS_TYPE":0,"CLASSIFICATION_TYPE":"U","NORAD_CAT_ID":49301,"ELEMENT_SET_NO":999,"REV_AT_EPOCH":19484,"BSTAR":1.6627811e-5,"MEAN_MOTION_DOT":2.0e-7,"MEAN_MOTION_DDOT":0},{"OBJECT_NAME":"ONEWEB-0376","OBJECT_ID":"2021-090Z","EPOCH":"2025-09-19T19:48:51.471936","MEAN_MOTION":13.19723139,"ECCENTRICITY":0.00015524,"INCLINATION":87.9283,"RA_OF_ASC_NODE":358.7143,"ARG_OF_PERICENTER":100.9114,"MEAN_ANOMALY":259.2193,"EPHEMERIS_TYPE":0,"CLASSIFICATION_TYPE":"U","NORAD_CAT_ID":49302,"ELEMENT_SET_NO":999,"REV_AT_EPOCH":19079,"BSTAR":-1.5903088e-5,"MEAN_MOTION_DOT":7.0e-8,"MEAN_MOTION_DDOT":0},{"OBJECT_NAME":"ONEWEB-0377","OBJECT_ID":"2021-090AA","EPOCH":"2025-09-19T17:02:13.794432","MEAN_MOTION":13.20771272,"ECCENTRICITY":0.0002108,"INCLINATION":87.9275,"RA_OF_ASC_NODE":328.3614,"ARG_OF_PERICENTER":100.6171,"MEAN_ANOMALY":259.52,"EPHEMERIS_TYPE":0,"CLASSIFICATION_TYPE":"U","NORAD_CAT_ID":49303,"ELEMENT_SET_NO":999,"REV_AT_EPOCH":19481,"BSTAR":-0.00021917269,"MEAN_MOTION_DOT":-7.6e-7,"MEAN_MOTION_DDOT":0}]
