ONEWEB-0362             
1 49288U 21090K   25262.96618678  .00000095  00000+0  20594-3 0  9997
2 49288  87.9284 358.7279 0001734 108.5083 251.6238 13.19725712191277
ONEWEB-0363             
1 49289U 21090L   25262.94015911  .00000079  00000+0  16361-3 0  9996
2 49289  87.9265 328.3207 0002111  89.6268 270.5108 13.20770240194632
ONEWEB-0364             
1 49290U 21090M   25262.90228103  .00000108  00000+0  23386-3 0  9991
2 49290  87.9258 328.3545 0001915  93.5708 266.5644 13.20769863195769
ONEWEB-0365             
1 49291U 21090N   25262.82401704  .00000033  00000+0  50906-4 0  9999
2 49291  87.9283 358.7118 0001642 100.1403 259.9915 13.19725702190769
ONEWEB-0366             
1 49292U 21090P   25262.76104720  .00000239  00000+0  60988-3 0  9999
2 49292  87.9083 343.5695 0001885 100.2434 259.8908 13.14502989192032
ONEWEB-0367             
1 49293U 21090Q   25262.93857364 -.00000100  00000+0 -27678-3 0  9996
2 49293  87.9268 328.3167 0001835 104.1661 255.9677 13.20768464194157
ONEWEB-0368             
1 49294U 21090R   25263.13902049  .00000097  00000+0  20771-3 0  9991
2 49294  87.9262 328.3127 0001529  74.0122 286.1180 13.20770056195331
ONEWEB-0369             
1 49295U 21090S   25262.81928641 -.00000003  00000+0 -39705-4 0  9999
2 49295  87.9293 358.7431 0001715 102.5491 257.5833 13.19725355190752
ONEWEB-0370             
1 49296U 21090T   25262.94804964 -.00000042  00000+0 -13617-3 0  9991
2 49296  87.9266 328.3233 0002054 106.2000 253.9359 13.20770010194195
ONEWEB-0371             
1 49297U 21090U   25262.82717721  .00000024  00000+0  26466-4 0  9998
2 49297  87.9285 358.7309 0001716 103.4636 256.6688 13.19725370190790
ONEWEB-0372             
1 49298U 21090V   25262.93687105  .00000057  00000+0  10827-3 0  9992
2 49298  87.9263 328.3280 0001755  98.1452 261.9881 13.20771994194161
ONEWEB-0373             
1 49299U 21090W   25263.11534897  .00000097  00000+0  20611-3 0  9999
2 49299  87.9257 328.3063 0001977  97.4232 262.7126 13.20771669195372
ONEWEB-0374             
1 49300U 21090X   25262.74836583 -.00000254  00000+0 -71853-3 0  9998
2 49300  87.9085 343.5474 0001601 103.7323 256.3985 13.14503273192034
ONEWEB-0375             
1 49301U 21090Y   25262.87545192  .00000020  00000+0  16628-4 0  9995
2 49301  87.9263 328.3339 0002345  88.9099 271.2303 13.20770548194843
ONEWEB-0376             
1 49302U 21090Z   25262.82559574  .00000007  00000+0 -15903-4 0  9991
2 49302  87.9283 358.7143 0001552 100.9114 259.2193 13.19723139190793
ONEWEB-0377             
1 49303U 21090AA  25262.70988188 -.00000076  00000+0 -21917-3 0  9994
2 49303  87.9275 328.3614 0002108 100.6171 259.5200 13.20771272194811
